{
  "type": "FeatureCollection",
  "features": [
    {
      "type": "Feature",
      "properties": {
        "norad_id": 32162,
        "name": "FENGYUN 1C DEB",
        "group": "fengyun-1c-debris",
        "lat": 49.79351156034134,
        "lon": 31.373754516077774,
        "alt_km": 682.351096298321,
        "timestamp": "2025-12-22T05:49:03.785498+00:00",
        "meta_object_name": "FENGYUN 1C DEB",
        "meta_object_id": "1999-025CTG",
        "meta_epoch": "2025-12-18T09:36:42.176160",
        "meta_mean_motion": 14.62107639,
        "meta_eccentricity": 0.00478844,
        "meta_inclination": 99.463,
        "meta_ra_of_asc_node": 38.3597,
        "meta_arg_of_pericenter": 153.8271,
        "meta_mean_anomaly": 206.5361,
        "meta_ephemeris_type": 0,
        "meta_classification_type": "U",
        "meta_norad_cat_id": 32162,
        "meta_element_set_no": 999,
        "meta_rev_at_epoch": 95001,
        "meta_bstar": 0.0011169417,
        "meta_mean_motion_dot": 5.648e-05,
        "meta_mean_motion_ddot": 0,
        "tle_line1": "1 32162U 99025CTG 25352.40048815  .00005648  00000+0  11169-2 0  9998",
        "tle_line2": "2 32162  99.4630  38.3597 0047884 153.8271 206.5361 14.62107639950017"
      },
      "geometry": {
        "type": "Point",
        "coordinates": [
          31.373754516077774,
          49.79351156034134
        ]
      }
    },
    {
      "type": "Feature",
      "properties": {
        "norad_id": 32163,
        "name": "FENGYUN 1C DEB",
        "group": "fengyun-1c-debris",
        "lat": -31.443343568771752,
        "lon": 9.113299059513187,
        "alt_km": 725.379418787039,
        "timestamp": "2025-12-22T05:49:03.785508+00:00",
        "meta_object_name": "FENGYUN 1C DEB",
        "meta_object_id": "1999-025CTH",
        "meta_epoch": "2025-12-17T06:09:38.740032",
        "meta_mean_motion": 14.43153942,
        "meta_eccentricity": 0.00514789,
        "meta_inclination": 99.5454,
        "meta_ra_of_asc_node": 357.6283,
        "meta_arg_of_pericenter": 21.6081,
        "meta_mean_anomaly": 338.7262,
        "meta_ephemeris_type": 0,
        "meta_classification_type": "U",
        "meta_norad_cat_id": 32163,
        "meta_element_set_no": 999,
        "meta_rev_at_epoch": 61041,
        "meta_bstar": 0.00073174998,
        "meta_mean_motion_dot": 2.443e-05,
        "meta_mean_motion_ddot": 0,
        "tle_line1": "1 32163U 99025CTH 25351.25669838  .00002443  00000+0  73175-3 0  9991",
        "tle_line2": "2 32163  99.5454 357.6283 0051478  21.6081 338.7262 14.43153942610419"
      },
      "geometry": {
        "type": "Point",
        "coordinates": [
          9.113299059513187,
          -31.443343568771752
        ]
      }
    },
    {
      "type": "Feature",
      "properties": {
        "norad_id": 32167,
        "name": "FENGYUN 1C DEB",
        "group": "fengyun-1c-debris",
        "lat": -68.1343155435719,
        "lon": 12.336446700643368,
        "alt_km": 812.6533623100131,
        "timestamp": "2025-12-22T05:49:03.785533+00:00",
        "meta_object_name": "FENGYUN 1C DEB",
        "meta_object_id": "1999-025CTM",
        "meta_epoch": "2025-12-20T05:28:27.928992",
        "meta_mean_motion": 14.30998842,
        "meta_eccentricity": 0.016454,
        "meta_inclination": 98.4733,
        "meta_ra_of_asc_node": 348.5655,
        "meta_arg_of_pericenter": 35.456,
        "meta_mean_anomaly": 325.7429,
        "meta_ephemeris_type": 0,
        "meta_classification_type": "U",
        "meta_norad_cat_id": 32167,
        "meta_element_set_no": 999,
        "meta_rev_at_epoch": 62782,
        "meta_bstar": 0.000269,
        "meta_mean_motion_dot": 7.75e-06,
        "meta_mean_motion_ddot": 0,
        "tle_line1": "1 32167U 99025CTM 25354.22810103  .00000775  00000+0  26900-3 0  9998",
        "tle_line2": "2 32167  98.4733 348.5655 0164540  35.4560 325.7429 14.30998842627829"
      },
      "geometry": {
        "type": "Point",
        "coordinates": [
          12.336446700643368,
          -68.1343155435719
        ]
      }
    },
    {
      "type": "Feature",
      "properties": {
        "norad_id": 32168,
        "name": "FENGYUN 1C DEB",
        "group": "fengyun-1c-debris",
        "lat": 77.90722546394004,
        "lon": -37.91688211000595,
        "alt_km": 1024.5954677087948,
        "timestamp": "2025-12-22T05:49:03.785546+00:00",
        "meta_object_name": "FENGYUN 1C DEB",
        "meta_object_id": "1999-025CTN",
        "meta_epoch": "2025-12-18T11:16:29.840448",
        "meta_mean_motion": 13.86192927,
        "meta_eccentricity": 0.02433814,
        "meta_inclination": 101.6567,
        "meta_ra_of_asc_node": 62.9222,
        "meta_arg_of_pericenter": 224.048,
        "meta_mean_anomaly": 134.1048,
        "meta_ephemeris_type": 0,
        "meta_classification_type": "U",
        "meta_norad_cat_id": 32168,
        "meta_element_set_no": 999,
        "meta_rev_at_epoch": 63559,
        "meta_bstar": 0.0032413664,
        "meta_mean_motion_dot": 4.66e-05,
        "meta_mean_motion_ddot": 0,
        "tle_line1": "1 32168U 99025CTN 25352.46978982  .00004660  00000+0  32414-2 0  9996",
        "tle_line2": "2 32168 101.6567  62.9222 0243381 224.0480 134.1048 13.86192927635599"
      },
      "geometry": {
        "type": "Point",
        "coordinates": [
          -37.91688211000595,
          77.90722546394004
        ]
      }
    },
    {
      "type": "Feature",
      "properties": {
        "norad_id": 32169,
        "name": "FENGYUN 1C DEB",
        "group": "fengyun-1c-debris",
        "lat": -63.10939265372524,
        "lon": -157.38926537777164,
        "alt_km": 695.3348149659787,
        "timestamp": "2025-12-22T05:49:03.785559+00:00",
        "meta_object_name": "FENGYUN 1C DEB",
        "meta_object_id": "1999-025CTP",
        "meta_epoch": "2025-12-20T06:40:31.979424",
        "meta_mean_motion": 14.68075761,
        "meta_eccentricity": 0.00335515,
        "meta_inclination": 98.5573,
        "meta_ra_of_asc_node": 183.2854,
        "meta_arg_of_pericenter": 95.2839,
        "meta_mean_anomaly": 265.2194,
        "meta_ephemeris_type": 0,
        "meta_classification_type": "U",
        "meta_norad_cat_id": 32169,
        "meta_element_set_no": 999,
        "meta_rev_at_epoch": 96729,
        "meta_bstar": 0.0026626676,
        "meta_mean_motion_dot": 0.00015393,
        "meta_mean_motion_ddot": 0,
        "tle_line1": "1 32169U 99025CTP 25354.27814791  .00015393  00000+0  26627-2 0  9999",
        "tle_line2": "2 32169  98.5573 183.2854 0033551  95.2839 265.2194 14.68075761967291"
      },
      "geometry": {
        "type": "Point",
        "coordinates": [
          -157.38926537777164,
          -63.10939265372524
        ]
      }
    },
    {
      "type": "Feature",
      "properties": {
        "norad_id": 32171,
        "name": "FENGYUN 1C DEB",
        "group": "fengyun-1c-debris",
        "lat": 66.01201449674898,
        "lon": 106.55470085751234,
        "alt_km": 1289.3826636072563,
        "timestamp": "2025-12-22T05:49:03.785570+00:00",
        "meta_object_name": "FENGYUN 1C DEB",
        "meta_object_id": "1999-025CTR",
        "meta_epoch": "2025-12-19T23:42:54.324000",
        "meta_mean_motion": 13.42626137,
        "meta_eccentricity": 0.0488961,
        "meta_inclination": 102.8047,
        "meta_ra_of_asc_node": 252.9563,
        "meta_arg_of_pericenter": 350.4446,
        "meta_mean_anomaly": 24.1541,
        "meta_ephemeris_type": 0,
        "meta_classification_type": "U",
        "meta_norad_cat_id": 32171,
        "meta_element_set_no": 999,
        "meta_rev_at_epoch": 60713,
        "meta_bstar": 0.003107,
        "meta_mean_motion_dot": 3.53e-05,
        "meta_mean_motion_ddot": 0,
        "tle_line1": "1 32171U 99025CTR 25353.98812875  .00003530  00000+0  31070-2 0  9998",
        "tle_line2": "2 32171 102.8047 252.9563 0488961 350.4446  24.1541 13.42626137607131"
      },
      "geometry": {
        "type": "Point",
        "coordinates": [
          106.55470085751234,
          66.01201449674898
        ]
      }
    },
    {
      "type": "Feature",
      "properties": {
        "norad_id": 32174,
        "name": "FENGYUN 1C DEB",
        "group": "fengyun-1c-debris",
        "lat": 22.246600840158354,
        "lon": 54.54455559235218,
        "alt_km": 936.2943387347668,
        "timestamp": "2025-12-22T05:49:03.785583+00:00",
        "meta_object_name": "FENGYUN 1C DEB",
        "meta_object_id": "1999-025CTU",
        "meta_epoch": "2025-12-14T21:34:34.410432",
        "meta_mean_motion": 14.17923145,
        "meta_eccentricity": 0.01505704,
        "meta_inclination": 98.6008,
        "meta_ra_of_asc_node": 50.9784,
        "meta_arg_of_pericenter": 239.665,
        "meta_mean_anomaly": 118.9562,
        "meta_ephemeris_type": 0,
        "meta_classification_type": "U",
        "meta_norad_cat_id": 32174,
        "meta_element_set_no": 999,
        "meta_rev_at_epoch": 64136,
        "meta_bstar": 0.00031806491,
        "meta_mean_motion_dot": 6.84e-06,
        "meta_mean_motion_ddot": 0,
        "tle_line1": "1 32174U 99025CTU 25348.89900938  .00000684  00000+0  31806-3 0  9998",
        "tle_line2": "2 32174  98.6008  50.9784 0150570 239.6650 118.9562 14.17923145641361"
      },
      "geometry": {
        "type": "Point",
        "coordinates": [
          54.54455559235218,
          22.246600840158354
        ]
      }
    }
  ]
}